{
    "links": {
        "self": "http://www.neowsapp.com/rest/v1/neo/3454729?api_key=iIulBulltgU6a56xZRHN4H3l9WmuAYTsLGpBGhQ2"
    },
    "id": "3454729",
    "neo_reference_id": "3454729",
    "name": "(2009 FS4)",
    "designation": "2009 FS4",
    "nasa_jpl_url": "http://ssd.jpl.nasa.gov/sbdb.cgi?sstr=3454729",
    "absolute_magnitude_h": 25.1,
    "estimated_diameter": {
        "kilometers": {
            "estimated_diameter_min": 0.0253837029,
            "estimated_diameter_max": 0.0567596853
        },
        "meters": {
            "estimated_diameter_min": 25.3837029364,
            "estimated_diameter_max": 56.7596852866
        },
        "miles": {
            "estimated_diameter_min": 0.0157726969,
            "estimated_diameter_max": 0.0352688224
        },
        "feet": {
            "estimated_diameter_min": 83.279867942,
            "estimated_diameter_max": 186.2194458756
        }
    },
    "is_potentially_hazardous_asteroid": false,
    "close_approach_data": [
        {
            "close_approach_date": "2009-04-04",
            "close_approach_date_full": "2009-Apr-04 01:44",
            "epoch_date_close_approach": 1238809440000,
            "relative_velocity": {
                "kilometers_per_second": "7.6743283453",
                "kilometers_per_hour": "27627.5820431961",
                "miles_per_hour": "17166.7050756737"
            },
            "miss_distance": {
                "astronomical": "0.0351003524",
                "lunar": "13.6540370836",
                "kilometers": "5250937.955289388",
                "miles": "3262781.5482260344"
            },
            "orbiting_body": "Earth"
        }
    ],
    "orbital_data": {
        "orbit_id": "18",
        "orbit_determination_date": "2017-04-06 09:00:59",
        "first_observation_date": "2009-03-18",
        "last_observation_date": "2009-04-09",
        "data_arc_in_days": 22,
        "observations_used": 61,
        "orbit_uncertainty": "8",
        "minimum_orbit_intersection": ".0248539",
        "jupiter_tisserand_invariant": "3.225",
        "epoch_osculation": "2454917.5",
        "eccentricity": ".5840327389190123",
        "semi_major_axis": "2.470439792296517",
        "inclination": ".6066923379265132",
        "ascending_node_longitude": "356.1710902795737",
        "orbital_period": "1418.273008968822",
        "perihelion_distance": "1.027622074067066",
        "perihelion_argument": "207.8239190798169",
        "aphelion_distance": "3.913257510525967",
        "perihelion_time": "2454933.079141108994",
        "mean_anomaly": "356.0455492251696",
        "mean_motion": ".2538298322843666",
        "equinox": "J2000",
        "orbit_class": {
            "orbit_class_type": "AMO",
            "orbit_class_description": "Near-Earth asteroid orbits similar to that of 1221 Amor",
            "orbit_class_range": "1.017 AU < q (perihelion) < 1.3 AU"
        }
    },
    "is_sentry_object": false
}